[{"OBJECT_NAME":"GHGSAT-C4","OBJECT_ID":"2022-057Q","EPOCH":"2026-03-09T22:58:28.655904","MEAN_MOTION":15.3293316,"ECCENTRICITY":0.0007552,"INCLINATION":97.6357,"RA_OF_ASC_NODE":210.0193,"ARG_OF_PERICENTER":100.0033,"MEAN_ANOMALY":260.2061,"EPHEMERIS_TYPE":0,"CLASSIFICATION_TYPE":"U","NORAD_CAT_ID":52746,"ELEMENT_SET_NO":999,"REV_AT_EPOCH":21033,"BSTAR":0.00030289005,"MEAN_MOTION_DOT":9.562e-5,"MEAN_MOTION_DDOT":0},{"OBJECT_NAME":"STARLINK-30936","OBJECT_ID":"2023-192D","EPOCH":"2026-03-09T22:25:52.639392","MEAN_MOTION":15.30185639,"ECCENTRICITY":0.00012615,"INCLINATION":53.1613,"RA_OF_ASC_NODE":51.6347,"ARG_OF_PERICENTER":89.1468,"MEAN_ANOMALY":270.9677,"EPHEMERIS_TYPE":0,"CLASSIFICATION_TYPE":"U","NORAD_CAT_ID":58534,"ELEMENT_SET_NO":999,"REV_AT_EPOCH":12616,"BSTAR":2.6179759e-5,"MEAN_MOTION_DOT":4.16e-6,"MEAN_MOTION_DDOT":0}]
